satname,norad_id,inclination_deg,eccentricity,mean_motion_rev_per_day,perigee_km,apogee_km,l1,l2
STARLINK-1234,45190,53.0406,0.0007299,15.71335613,350.16430492995823,359.99345347041435,1 45190U 20012N   26136.87670370  .00058990  00000+0  45571-3 0  9995,2 45190  53.0406 349.3957 0007299 150.9261 209.2164 15.71335613346574
STARLINK-1269,45197,53.1574,0.0003122,15.33046406,464.59239945417266,468.86633401356175,1 45197U 20012V   26136.83313524  .00021540  00000+0  67491-3 0  9999,2 45197  53.1574  82.6507 0003122  60.6774 299.4540 15.33046406345354
STARLINK-1154,45198,53.0417,0.00028,15.56608002,395.58521687051234,399.3795637290805,1 45198U 20012W   26136.76963357  .00051195  00000+0  70894-3 0  9997,2 45198  53.0417  42.4970 0002800  50.3543 309.7715 15.56608002345866
STARLINK-1199,45201,53.1582,0.0002767,15.33020878,464.9113585225987,468.69934962134084,1 45201U 20012Z   26136.80367831  .00023367  00000+0  73159-3 0  9999,2 45201  53.1582  67.0506 0002767 100.6135 259.5178 15.33020878345590
STARLINK-1209,45206,53.0409,0.0010346,15.62646791,373.0230617523166,387.00702996560904,1 45206U 20012AE  26136.90071138  .00072246  00000+0  78926-3 0  9994,2 45206  53.0409   2.5431 0010346 141.0661 219.1099 15.62646791345547
STARLINK-1231,45212,53.0373,0.0004063,15.26371442,483.88116983293094,489.459512278273,1 45212U 20012AL  26136.81971495  .00019181  00000+0  73910-3 0  9993,2 45212  53.0373  61.4755 0004063  39.0767 321.0524 15.26371442345611
STARLINK-1271,45217,53.1597,0.0002291,15.33115839,464.9545897107919,468.09081278590384,1 45217U 20012AR  26136.80357205  .00024400  00000+0  76107-3 0  9995,2 45217  53.1597  67.1970 0002291  86.7031 273.4233 15.33115839345599
STARLINK-1191,45222,53.1562,0.0004757,15.3682886,452.2429077420593,458.74442395754795,1 45222U 20012AW  26136.44860485  .00031947  00000+0  88139-3 0  9992,2 45222  53.1562  42.4715 0004757 110.0687 250.0829 15.36828860345913
STARLINK-1212,45223,53.0419,0.0004286,15.64850443,370.77509342218855,376.562741454617,1 45223U 20012AX  26136.93948591  .00041916  00000+0  42468-3 0  9994,2 45223  53.0419  18.1936 0004286  86.6755 273.4749 15.64850443346284
STARLINK-1215,45225,53.158,0.0002398,15.33244709,464.49790702471,467.78042187317897,1 45225U 20012AZ  26136.21749619  .00034197  00000+0  10564-2 0  9991,2 45225  53.1580  44.2131 0002398 126.4274 233.6949 15.33244709345821
STARLINK-1221,45227,53.065,0.0002479,15.44117297,432.2842336285339,435.66167774456335,1 45227U 20012BB  26136.91689570  .00011750  00000+0  26142-3 0  9999,2 45227  53.0650 305.7214 0002479 195.7654 164.3275 15.44117297347241
STARLINK-1222,45228,53.054,9.27e-05,15.53644985,405.46545495819737,406.7232514510815,1 45228U 20012BC  26136.89716982  .00031061  00000+0  48358-3 0  9995,2 45228  53.0540  14.7529 0000927  60.4577 299.6525 15.53644985346219
STARLINK-1226,45229,53.1568,0.0003577,15.41581613,439.00151876199743,443.88024477861563,1 45229U 20012BD  26136.76129305  .00037997  00000+0  89523-3 0  9992,2 45229  53.1568  39.0704 0003577 121.6753 238.4602 15.41581613345880
STARLINK-1227,45230,53.156,0.0004062,15.41689387,438.35307307330913,443.89303994321745,1 45230U 20012BE  26136.44868414  .00038738  00000+0  90911-3 0  9997,2 45230  53.1560  40.6801 0004062 120.9953 239.1453 15.41689387345951
STARLINK-1246,45235,53.158,0.0003352,15.33184723,464.02342405057607,468.6119464715757,1 45235U 20012BK  26136.57984257  .00036870  00000+0  11397-2 0  9995,2 45235  53.1580  83.4673 0003352 105.0006 255.1367 15.33184723345377
STARLINK-1270,45237,53.0412,0.0004364,15.58109774,390.1729585215344,396.08291855989137,1 45237U 20012BM  26136.93732708  .00041982  00000+0  55141-3 0  9995,2 45237  53.0412  18.6700 0004364 114.6799 245.4667 15.58109774346277
STARLINK-1279,45360,53.0352,0.0009537,15.71385036,348.5163636285197,361.35903030551344,1 45360U 20019A   26136.66458002  .00062515  00000+0  48096-3 0  9997,2 45360  53.0352 125.2454 0009537  35.9026 324.2630 15.71385036341311
STARLINK-1301,45361,53.0368,0.0006768,15.73623466,343.9985014146114,353.1037464591727,1 45361U 20019B   26136.67475637  .00069242  00000+0  48422-3 0  9999,2 45361  53.0368 128.2039 0006768  53.8829 306.2814 15.73623466341288
STARLINK-1262,45366,53.1547,0.0003112,15.32175155,467.19301910672766,471.45487880135715,1 45366U 20019G   26136.92731253  .00017526  00000+0  56675-3 0  9998,2 45366  53.1547 208.1471 0003112   6.1866 353.9173 15.32175155340203
STARLINK-1273,45367,53.0452,0.0005896,15.54036874,400.9544533118633,408.9530739403308,1 45367U 20019H   26136.52539992  .00040636  00000+0  62042-3 0  9994,2 45367  53.0452 189.6223 0005896 341.5115  18.5680 15.54036874340418
STARLINK-1277,45369,53.0441,0.0006463,15.60291363,382.442586749994,391.18696341446594,1 45369U 20019K   26136.82841567  .00054189  00000+0  65228-3 0  9990,2 45369  53.0441 183.2424 0006463 334.1777  25.8911 15.60291363340538
STARLINK-1281,45370,53.1562,0.0004052,15.33079523,463.85729300497405,469.40429282435343,1 45370U 20019L   26136.69128427  .00018576  00000+0  58318-3 0  9992,2 45370  53.1562 209.0144 0004052   1.8008 358.3007 15.33079523340170
STARLINK-1300,45374,53.1588,0.0003995,15.33413778,462.9019834180117,468.37015810154935,1 45374U 20019Q   26136.90515791  .00019705  00000+0  61142-3 0  9998,2 45374  53.1588 207.9821 0003995  10.0747 350.0334 15.33413778340208
STARLINK-1302,45375,53.0448,0.0005011,15.65080742,369.6235585641534,376.3895546365775,1 45375U 20019R   26136.81540225  .00035147  00000+0  35399-3 0  9992,2 45375  53.0448 180.0087 0005011   0.6223 359.4797 15.65080742340575
STARLINK-1304,45376,53.042,0.0006163,15.59615609,384.59827971068717,392.93916770572923,1 45376U 20019S   26136.42752333  .00070465  00000+0  86674-3 0  9999,2 45376  53.0420 182.4363 0006163 355.8541   4.2419 15.59615609340504
STARLINK-1305,45377,53.0369,0.0010594,15.65360539,365.0507443574925,379.3533627441557,1 45377U 20019T   26136.30878506  .00043514  00000+0  43076-3 0  9992,2 45377  53.0369 162.9324 0010594   3.0377 357.0700 15.65360539340776
STARLINK-1319,45379,53.039,0.000516,15.7375803,344.69690212840123,351.63844855335174,1 45379U 20019V   26136.93265693  .00083081  00000+0  57614-3 0  9996,2 45379  53.0390 152.5045 0005160  22.1871 337.9369 15.73758030340977
STARLINK-1266,45383,53.0434,0.000566,15.55844063,395.86389588886686,403.5364075446105,1 45383U 20019Z   26136.77518430  .00038209  00000+0  54667-3 0  9990,2 45383  53.0434 165.8122 0005660 348.8971  11.1914 15.55844063340764
STARLINK-1267,45384,53.0433,0.0007532,15.61877648,377.14164349313705,387.32546569657825,1 45384U 20019AA  26136.76824686  .00052905  00000+0  59921-3 0  9990,2 45384  53.0433 157.3623 0007532  28.6492 331.4933 15.61877648340881
STARLINK-1272,45386,53.0391,0.0008763,15.67176941,361.07440681559456,372.8959079085889,1 45386U 20019AC  26136.98167812  .00048945  00000+0  44994-3 0  9990,2 45386  53.0391 135.8388 0008763  23.6651 336.4766 15.67176941341204
STARLINK-1274,45387,53.0206,0.000953,15.57775171,387.6435888717224,400.55146788280945,1 45387U 20019AD  26136.69450003  .00053690  00000+0  71011-3 0  9999,2 45387  53.0206 135.1110 0009530  44.5130 315.6645 15.57775171341184
STARLINK-1280,45388,53.0365,0.0005998,15.74366192,342.40196223721614,350.4687592411592,1 45388U 20019AE  26136.31815472  .00072697  00000+0  49212-3 0  9990,2 45388  53.0365 148.0506 0005998  28.3062 331.8281 15.74366192340960
STARLINK-1283,45389,53.0383,0.00046,15.68347356,360.52772662385723,366.73015128769566,1 45389U 20019AF  26136.69870380  .00048013  00000+0  42159-3 0  9999,2 45389  53.0383 136.5293 0004600  46.0100 314.1294 15.68347356341171
STARLINK-1284,45390,53.0392,0.0005062,15.67402717,362.923356288341,369.7514621802502,1 45390U 20019AG  26136.76453247  .00043745  00000+0  39978-3 0  9990,2 45390  53.0392 159.9090 0005062 338.8772  21.2034 15.67402717340840
STARLINK-1297,45395,53.0404,0.0006773,15.65861353,366.1916266707203,375.3336861452908,1 45395U 20019AM  26136.94804376  .00039859  00000+0  38804-3 0  9996,2 45395  53.0404 157.7782 0006773 347.6314  12.4533 15.65861353340077
STARLINK-1307,45397,53.0511,0.000236,15.55072215,400.3426185879953,403.54281621460814,1 45397U 20019AP  26136.78017497  .00024412  00000+0  36265-3 0  9998,2 45397  53.0511 162.6822 0002360  32.2969 327.8185 15.55072215340637
STARLINK-1255,45399,53.034,0.0006714,15.62732239,375.23143490183975,384.30595066611113,1 45399U 20019AR  26136.68615847  .00067412  00000+0  73589-3 0  9999,2 45399  53.0340 132.4416 0006714  34.0389 326.1054 15.62732239341035
STARLINK-1260,45404,53.1546,0.0005691,15.35668453,455.0447478001124,462.8267039767197,1 45404U 20019AW  26136.57833648  .00025914  00000+0  74456-3 0  9990,2 45404  53.1546 172.6866 0005691   9.1305 350.9800 15.35668453340387
STARLINK-1263,45405,53.1561,0.0004181,15.33156517,463.539929903377,469.26333310704285,1 45405U 20019AX  26136.57537740  .00020898  00000+0  65287-3 0  9993,2 45405  53.1561 173.5356 0004181  28.4747 331.6483 15.33156517340379
STARLINK-1265,45406,53.1553,0.0005361,15.36004524,454.2735886319242,461.60322868508774,1 45406U 20019AY  26136.57625139  .00020422  00000+0  58326-3 0  9993,2 45406  53.1553 172.7432 0005361   2.0861 358.0164 15.36004524340386
STARLINK-1278,45408,53.0387,0.00069,15.66607512,363.964270054832,373.27479406907787,1 45408U 20019BA  26136.34904905  .00049171  00000+0  46281-3 0  9990,2 45408  53.0387 159.8065 0006900   6.5243 353.5861 15.66607512340533
STARLINK-1296,45412,53.1552,0.000627,15.36211869,453.0374437920027,461.60911097984444,1 45412U 20019BE  26136.81414844  .00018988  00000+0  53952-3 0  9990,2 45412  53.1552 171.3548 0006270   1.5701 358.5321 15.36211869340429
STARLINK-1309,45414,53.0594,0.0006742,15.65958154,365.9346070280353,375.03444829593354,1 45414U 20019BG  26136.74018062  .00039618  00000+0  38425-3 0  9997,2 45414  53.0594 151.6344 0006742 346.2667  13.8163 15.65958154340663
